0 FENGYUN 1C DEB
1 30880U 99025AXS 13281.50217966  .00001259  00000-0  75606-3 0   417
2 30880 099.0509 272.3051 0029509 112.8165 008.7888 14.08559948338569
0 FENGYUN 1C DEB
1 30880U 99025AXS 13283.62207333  .00001301  00000-0  77987-3 0   422
2 30880 099.0507 274.4324 0029566 107.0870 318.2015 14.08570843338866
0 FENGYUN 1C DEB
1 30880U 99025AXS 13285.68100822  .00001473  00000-0  87986-3 0   436
2 30880 099.0505 276.4986 0029605 101.5509 318.5477 14.08574680339153
0 FENGYUN 1C DEB
1 30880U 99025AXS 13287.95287102  .00002358  00000-0  13922-2 0   447
2 30880 099.0508 278.7781 0029599 095.4299 318.6563 14.08582424339470
0 FENGYUN 1C DEB
1 30880U 99025AXS 13290.45829951  .00002144  00000-0  12680-2 0   454
2 30880 099.0513 281.2919 0029618 088.7257 063.1590 14.08593082339822
0 FENGYUN 1C DEB
1 30880U 99025AXS 13292.51232049  .00002470  00000-0  14566-2 0   467
2 30880 099.0511 283.3525 0029592 082.9929 038.9772 14.08600040340118
0 FENGYUN 1C DEB
1 30880U 99025AXS 13294.78567395  .00002535  00000-0  14939-2 0   470
2 30880 099.0519 285.6338 0029672 076.8174 046.9229 14.08611467340432
